CUTE-1 (CO-55)          
1 27844U 03031E   26182.92971394  .00000305  00000+0  15103-3 0  9995
2 27844  98.6736 191.3031 0010400 137.2748 222.9241 14.24344785193772
CUBESAT XI-IV (CO-57)   
1 27848U 03031J   26182.50387728  .00000247  00000+0  12755-3 0  9990
2 27848  98.6768 190.5840 0009878 155.7692 204.3953 14.23628338193413
CUBESAT XI-V            
1 28895U 05043F   26182.94295542  .00001588  00000+0  25710-3 0  9992
2 28895  98.3000 338.8758 0014656 154.4297 205.7638 14.72672414103924
CUTE-1.7+APD II (CO-65) 
1 32785U 08021C   26182.89837735  .00006850  00000+0  43008-3 0  9991
2 32785  97.8281 164.6245 0008223 350.5158   9.5914 15.09593222987417
CANX-2                  
1 32790U 08021H   26182.90879930  .00004520  00000+0  31665-3 0  9990
2 32790  97.8635 162.9739 0010122   3.8303 356.2999 15.05719826987024
SEEDS II (CO-66)        
1 32791U 08021J   26182.95274746  .00022706  00000+0  70777-3 0  9993
2 32791  97.7519 181.5604 0001376 189.0732 171.0485 15.33260854989553
SWISSCUBE               
1 35932U 09051B   26182.67303243  .00001045  00000+0  21581-3 0  9993
2 35932  98.4025  90.8133 0007016 156.6940 203.4580 14.62508928891275
BEESAT-1                
1 35933U 09051C   26182.96382967  .00000892  00000+0  18880-3 0  9993
2 35933  98.3951  90.7133 0005241 166.7581 193.3758 14.61744129891349
ITUPSAT1                
1 35935U 09051E   26182.28254693  .00000863  00000+0  18802-3 0  9996
2 35935  98.4035  89.1986 0007070 185.0409 175.0721 14.60461628890792
TISAT 1                 
1 36799U 10035E   26182.81342010  .00025312  00000+0  81329-3 0  9999
2 36799  98.0711 130.6661 0003297 144.1100 216.0362 15.32268645869945
AEROCUBE 4.5A           
1 38767U 12048K   26180.81601320  .02026816  74244-5  11805-2 0  9992
2 38767  64.6148 340.0554 0018867 267.4936  92.4076 16.17962819374686
STRAND-1                
1 39090U 13009E   26182.74616838  .00000302  00000+0  11576-3 0  9993
2 39090  98.3926   2.6224 0008571 179.3400 180.7800 14.37172065699151
BRITE-AUSTRIA           
1 39091U 13009F   26182.76534719  .00000185  00000+0  77360-4 0  9996
2 39091  98.4000   1.8406 0009910 189.9441 170.1551 14.36547861699143
NEE-01 PEGASO           
1 39151U 13018B   26182.86925203  .00003062  00000+0  29450-3 0  9999
2 39151  98.1239 327.5057 0013756 114.3640 245.9017 14.93732566712894
POPACS 2                
1 39269U 13055E   26181.19306930  .00014049  00000+0  23497-3 0  9997
2 39269  80.9915 129.3032 0416257 152.0121 210.4183 14.91555130665156
POPACS 3                
1 39270U 13055F   26182.82265636  .00011868  00000+0  28037-3 0  9998
2 39270  80.9994 213.3170 0550553  25.4491 337.2744 14.56396826640681
ZACUBE-1 (TSHEPISOSAT)  
1 39417U 13066B   26182.93784358  .00003697  00000+0  28697-3 0  9995
2 39417  97.8041 145.3497 0042860 197.9442 162.0271 15.01269498682947
WNISAT-1                
1 39423U 13066H   26182.89703739  .00001370  00000+0  25667-3 0  9991
2 39423  97.7220 331.0105 0162929 185.0793 174.8762 14.58093688668877
TRITON-1                
1 39427U 13066M   26182.81472052  .00000922  00000+0  11595-3 0  9995
2 39427  97.8242  92.2890 0089433 185.6689 174.3520 14.81749837676259
GOMX-1                  
1 39430U 13066Q   26182.89380536  .00001568  00000+0  24016-3 0  9991
2 39430  97.6470  22.4282 0129430  30.8177 330.0546 14.69508337672078
CUBEBUG-2 (LO-74)       
1 39440U 13066AA  26182.79953232  .00005278  00000+0  48671-3 0  9995
2 39440  97.8913 131.8405 0056768 340.7514  19.1560 14.93882399679175
NEE-02 KRYSAOR          
1 39441U 13066AB  26182.81465481  .00002680  00000+0  29597-3 0  9993
2 39441  97.8896 121.9256 0066666  23.1658 337.2539 14.86686631678373
FUNCUBE-1 (AO-73)       
1 39444U 13066AE  26182.90457851  .00007784  00000+0  47967-3 0  9999
2 39444  97.8285 154.6596 0037244 150.9783 209.3527 15.09668727681884
UWE-3                   
1 39446U 13066AG  26182.85315259  .00003431  00000+0  29591-3 0  9998
2 39446  97.8710 139.0279 0047128 271.0445  88.5377 14.97133222679774
BRITE-CA1 (TORONTO)     
1 40020U 14033L   26182.91758358  .00001039  00000+0  16349-3 0  9990
2 40020  97.9758 311.5755 0077570 229.0817 130.3657 14.72701096644382
DUCHIFAT-1              
1 40021U 14033M   26182.90940960  .00146119  00000+0  13105-2 0  9997
2 40021  98.0444 244.1727 0000074 189.5033 170.6224 15.67833867658055
NANOSATC-BR1            
1 40024U 14033Q   26182.83919384  .00021575  00000+0  70110-3 0  9996
2 40024  98.0709 216.5292 0005225 127.8773 232.2940 15.31932929656228
QB50P1                  
1 40025U 14033R   26182.84616877  .00010583  00000+0  51614-3 0  9994
2 40025  98.0959 195.0218 0009338 165.1158 195.0351 15.18484138655259
QB50P2                  
1 40032U 14033Y   26182.95846613  .00008852  00000+0  47265-3 0  9990
2 40032  98.0749 180.7598 0009099 120.4124 239.8007 15.15351807654906
PERSEUS-M2              
1 40037U 14033AD  26182.91649306  .00000740  00000+0  72198-4 0  9993
2 40037  97.9971 133.7585 0010423 250.0541 109.9557 14.95550350652980
